CZ-4B R/B               
1 28415U 04035C   25283.37579737  .00009245  00000+0  35624-3 0  9992
2 28415  97.3694 314.5987 0035706 138.8442 221.5499 15.25951250156962
CZ-2C R/B               
1 28480U 04046B   25283.49860492  .00000255  00000+0  11053-3 0  9992
2 28480  98.1925 202.8271 0138400 238.8075 119.9479 14.26900015 87080
ARIANE 5 R/B            
1 28499U 04049H   25283.44597025  .00001604  00000+0  18385-3 0  9993
2 28499  98.2494  81.4838 0085969 117.5993 243.3984 14.84813813123497
CZ-2D R/B               
1 28738U 05024B   25283.49819394  .00027875  00000+0  51631-3 0  9993
2 28738  97.3698 289.4616 0004774 187.9681 172.1495 15.48960580116452
ALOS (DAICHI)           
1 28931U 06002A   25283.43140481  .00002125  00000+0  36938-3 0  9997
2 28931  98.0981 235.4166 0002324  72.5016 287.6443 14.69166101 51419
H-2A R/B                
1 28932U 06002B   25283.32585272  .00009060  00000+0  49793-3 0  9995
2 28932  98.2268  53.0069 0056602  32.8007 327.6715 15.12969039 71670
RESURS-DK 1             
1 29228U 06021A   25283.38208804  .00003131  00000+0  18994-3 0  9996
2 29228  69.9330 265.5057 0006354 316.1157  43.9503 15.11630707 64800
CZ-4B R/B               
1 29507U 06046C   25283.37989134  .00005626  00000+0  30040-3 0  9991
2 29507  97.5832 323.6945 0036263  69.0567 291.4539 15.14960195 37277
CZ-2C R/B               
1 31114U 07010B   25283.31092678  .00000167  00000+0  95573-4 0  9990
2 31114  98.3925  39.1720 0059233  12.6248 347.6397 14.20174142958372
COSMO-SKYMED 1          
1 31598U 07023A   25283.48965950  .00003008  00000+0  27965-3 0  9996
2 31598  97.8883 108.4963 0001287  80.5215 279.6150 14.95120683992448
COSMOS 2428             
1 31792U 07029A   25283.09115550 -.00000210  00000+0 -86868-4 0  9990
2 31792  70.9405 159.4999 0002251 173.5491 186.5660 14.12900093942821
SL-16 R/B               
1 31793U 07029B   25283.34505303  .00000136  00000+0  95470-4 0  9992
2 31793  70.9740 128.4146 0002520 266.4518 266.2248 14.14802041944102
KORONAS-FOTON           
1 33504U 09003A   25283.47297381  .00013905  00000+0  35760-3 0  9999
2 33504  82.4307  71.5432 0011324 341.4143  18.6687 15.39064075922609
CZ-2C R/B               
1 37731U 11030B   25283.48853306  .00001778  00000+0  23289-3 0  9992
2 37731  97.8300 239.0504 0054562 118.2309 357.1448 14.80572889767867
H-2A R/B                
1 38341U 12025E   25283.42005389  .00004541  00000+0  42529-3 0  9998
2 38341  98.4491 233.8415 0047598  84.1682 276.4959 14.93765878725772
SHIJIAN-16 (SJ-16)      
1 39358U 13057A   25283.49674535  .00001409  00000+0  14266-3 0  9992
2 39358  74.9694 109.2858 0016163 119.0948 241.1861 14.91667134649106
SL-4 R/B                
1 39679U 14021B   25283.48376139  .00013842  00000+0  35195-3 0  9996
2 39679  51.6098 347.4537 0106654 277.6502  81.2378 15.34228336633175
ALOS-2                  
1 39766U 14029A   25283.50631029  .00002219  00000+0  30391-3 0  9995
2 39766  97.9228  19.2537 0001448  97.7308 262.4068 14.79480848614662
YAOGAN-29               
1 41038U 15069A   25283.52369094  .00000596  00000+0  80461-4 0  9997
2 41038  98.0292 306.4680 0002844 104.3640 255.7888 14.82778193533623
ASTRO-H (HITOMI)        
1 41337U 16012A   25283.32421418  .00004302  00000+0  26119-3 0  9993
2 41337  30.9999 246.0122 0010292 261.2282  98.7190 15.08768413529499
HXMT (HUIYAN)           
1 42758U 17034A   25283.52909433  .00006378  00000+0  34111-3 0  9992
2 42758  43.0130 130.1271 0033118   4.0921 356.0191 15.15213921459740
CZ-2C R/B               
1 43521U 18054D   25283.30031677  .00074285  00000+0  79846-3 0  9992
2 43521  35.1365 246.8939 0030831 256.6520 103.0770 15.61939436405095
SAOCOM 1A               
1 43641U 18076A   25283.48202465  .00000682  00000+0  92198-4 0  9999
2 43641  97.8890 108.8144 0001451  88.9828 271.1551 14.82139694379111
H-2A R/B                
1 43682U 18084L   25283.49495322  .00019725  00000+0  58813-3 0  9993
2 43682  98.8833 104.6241 0029511 181.3095 178.8071 15.34290410382696
SAOCOM 1B               
1 46265U 20059A   25283.51330387  .00000630  00000+0  85686-4 0  9994
2 46265  97.8878 107.9498 0001349  92.4525 267.6843 14.82152009276502
CSS (TIANHE)            
1 48274U 21035A   25283.52451795  .00030174  00000+0  34569-3 0  9998
2 48274  41.4661  40.9193 0003006 222.2848 137.7760 15.61443907254150
COSMOS 2550             
1 48865U 21056A   25283.73553911 -.00000189  00000+0  87752-7 0  9993
2 48865  67.1398 134.5701 0008374 269.6960  90.3235 15.33832794240461
CZ-2C R/B               
1 52794U 22058K   25283.41346501  .00023473  00000+0  48317-3 0  9992
2 52794  50.1937   5.4429 0052815 294.0313  65.5131 15.44277064186838
GSLV R/B                
1 54149U 22138AN  25283.30457697  .00004640  00000+0  41416-3 0  9992
2 54149  87.3846 216.6957 0021226 346.1026  13.9617 14.95571873161445
XRISM                   
1 57800U 23137A   25283.36952644  .00006654  00000+0  40061-3 0  9999
2 57800  31.0013 174.3846 0008556 326.2811  33.7282 15.09365783115043
ACS3                    
1 59588U 24077B   25283.47630742  .00010851  00000+0  10097-1 0  9990
2 59588  97.3734 253.0049 0021560 338.7624  21.2638 13.82010037 73399
